start=new Date('2021-11-06T00:00:00.000Z').valueOf();
sats=[{"REV_AT_EPOCH":"3903","NORAD_CAT_ID":"47728","MEAN_ELEMENT_THEORY":"SGP4","INCLINATION":"53.0553","RA_OF_ASC_NODE":"116.7174","MEAN_MOTION":"15.06390454","ARG_OF_PERICENTER":"85.6471","PERIOD":"95.593","EPOCH":"2021-11-05T17:51:33.973344","ECCENTRICITY":"0.00017150","OBJECT_TYPE":"PAYLOAD","TLE_LINE2":"2 47728  53.0553 116.7174 0001715  85.6471 274.4714 15.06390454 39034","MEAN_MOTION_DOT":"0.00000019","EPHEMERIS_TYPE":"0","REF_FRAME":"TEME","MEAN_MOTION_DDOT":"0.0000000000000","ELEMENT_SET_NO":"999","BSTAR":"0.00002020900000","CLASSIFICATION_TYPE":"U","MEAN_ANOMALY":"274.4714","RCS_SIZE":"LARGE","FILE":"3204412","SITE":"AFETR","COUNTRY_CODE":"US","PERIAPSIS":"546.055","TIME_SYSTEM":"UTC","OBJECT_ID":"2021-017G","LAUNCH_DATE":"2021-03-04","GP_ID":"189045886","OBJECT_NAME":"STARLINK-2131","CENTER_NAME":"EARTH","DECAY_DATE":null,"SEMIMAJOR_AXIS":"6925.378","APOAPSIS":"548.431","TLE_LINE1":"1 47728U 21017G   21309.74414321  .00000019  00000-0  20209-4 0  9997"},{"MEAN_ELEMENT_THEORY":"SGP4","INCLINATION":"53.0555","REV_AT_EPOCH":"3974","NORAD_CAT_ID":"47729","RA_OF_ASC_NODE":"61.6578","MEAN_MOTION":"15.06406533","ARG_OF_PERICENTER":"73.7553","PERIOD":"95.592","EPOCH":"2021-11-05T18:05:25.928448","ECCENTRICITY":"0.00015340","TLE_LINE2":"2 47729  53.0555  61.6578 0001534  73.7553 286.3605 15.06406533 39746","OBJECT_TYPE":"PAYLOAD","ELEMENT_SET_NO":"999","MEAN_MOTION_DOT":"0.00002293","EPHEMERIS_TYPE":"0","MEAN_MOTION_DDOT":"0.0000000000000","REF_FRAME":"TEME","MEAN_ANOMALY":"286.3605","RCS_SIZE":"LARGE","FILE":"3204412","BSTAR":"0.00017277000000","CLASSIFICATION_TYPE":"U","PERIAPSIS":"546.131","OBJECT_ID":"2021-017H","TIME_SYSTEM":"UTC","SITE":"AFETR","COUNTRY_CODE":"US","OBJECT_NAME":"STARLINK-2132","CENTER_NAME":"EARTH","LAUNCH_DATE":"2021-03-04","GP_ID":"189046128","SEMIMAJOR_AXIS":"6925.329","APOAPSIS":"548.256","TLE_LINE1":"1 47729U 21017H   21309.75377232  .00002293  00000-0  17277-3 0  9994","DECAY_DATE":null},{"MEAN_ANOMALY":"279.2334","FILE":"3204412","RCS_SIZE":"LARGE","BSTAR":"0.00013817000000","CLASSIFICATION_TYPE":"U","PERIAPSIS":"546.125","OBJECT_ID":"2021-017J","TIME_SYSTEM":"UTC","SITE":"AFETR","COUNTRY_CODE":"US","OBJECT_NAME":"STARLINK-2140","CENTER_NAME":"EARTH","LAUNCH_DATE":"2021-03-04","GP_ID":"189046888","SEMIMAJOR_AXIS":"6925.360","APOAPSIS":"548.325","TLE_LINE1":"1 47730U 21017J   21309.89846016  .00001777  00000-0  13817-3 0  9994","DECAY_DATE":null,"MEAN_ELEMENT_THEORY":"SGP4","INCLINATION":"53.0561","REV_AT_EPOCH":"3879","NORAD_CAT_ID":"47730","RA_OF_ASC_NODE":"131.0262","MEAN_MOTION":"15.06396268","ARG_OF_PERICENTER":"80.8835","PERIOD":"95.592","EPOCH":"2021-11-05T21:33:46.957824","ECCENTRICITY":"0.00015880","OBJECT_TYPE":"PAYLOAD","TLE_LINE2":"2 47730  53.0561 131.0262 0001588  80.8835 279.2334 15.06396268 38795","ELEMENT_SET_NO":"999","EPHEMERIS_TYPE":"0","MEAN_MOTION_DOT":"0.00001777","MEAN_MOTION_DDOT":"0.0000000000000","REF_FRAME":"TEME"},{"RA_OF_ASC_NODE":"126.5860","MEAN_MOTION":"15.06396242","ARG_OF_PERICENTER":"85.1197","PERIOD":"95.592","REV_AT_EPOCH":"3885","NORAD_CAT_ID":"47731","INCLINATION":"53.0552","MEAN_ELEMENT_THEORY":"SGP4","EPHEMERIS_TYPE":"0","MEAN_MOTION_DOT":"-0.00000088","MEAN_MOTION_DDOT":"0.0000000000000","REF_FRAME":"TEME","ELEMENT_SET_NO":"999","ECCENTRICITY":"0.00014470","EPOCH":"2021-11-05T18:32:41.572032","OBJECT_TYPE":"PAYLOAD","TLE_LINE2":"2 47731  53.0552 126.5860 0001447  85.1197 274.9957 15.06396242 38854","SITE":"AFETR","COUNTRY_CODE":"US","PERIAPSIS":"546.223","TIME_SYSTEM":"UTC","OBJECT_ID":"2021-017K","BSTAR":"0.00001296800000","CLASSIFICATION_TYPE":"U","FILE":"3204412","RCS_SIZE":"LARGE","MEAN_ANOMALY":"274.9957","DECAY_DATE":null,"TLE_LINE1":"1 47731U 21017K   21309.77270338 -.00000088  00000-0  12968-4 0  9992","APOAPSIS":"548.227","SEMIMAJOR_AXIS":"6925.360","LAUNCH_DATE":"2021-03-04","GP_ID":"189047115","OBJECT_NAME":"STARLINK-2141","CENTER_NAME":"EARTH"},{"NORAD_CAT_ID":"47732","REV_AT_EPOCH":"4004","INCLINATION":"53.0425","MEAN_ELEMENT_THEORY":"SGP4","ARG_OF_PERICENTER":"359.6943","PERIOD":"94.070","MEAN_MOTION":"15.30782541","RA_OF_ASC_NODE":"41.9587","TLE_LINE2":"2 47732  53.0425  41.9587 0002261 359.6943   0.4055 15.30782541 40046","OBJECT_TYPE":"PAYLOAD","ECCENTRICITY":"0.00022610","EPOCH":"2021-11-05T20:48:19.534464","MEAN_MOTION_DDOT":"0.0000000000000","REF_FRAME":"TEME","MEAN_MOTION_DOT":"-0.00539046","EPHEMERIS_TYPE":"0","ELEMENT_SET_NO":"999","CLASSIFICATION_TYPE":"U","BSTAR":"-0.01918200000000","RCS_SIZE":"LARGE","FILE":"3204412","MEAN_ANOMALY":"0.4055","SITE":"AFETR","COUNTRY_CODE":"US","TIME_SYSTEM":"UTC","OBJECT_ID":"2021-017L","PERIAPSIS":"471.929","GP_ID":"189045387","LAUNCH_DATE":"2021-03-04","CENTER_NAME":"EARTH","OBJECT_NAME":"STARLINK-2142","DECAY_DATE":null,"APOAPSIS":"475.027","TLE_LINE1":"1 47732U 21017L   21309.86689276 -.00539046  00000-0 -19182-1 0  9992","SEMIMAJOR_AXIS":"6851.613"},{"RCS_SIZE":"LARGE","FILE":"3204412","MEAN_ANOMALY":"284.0385","CLASSIFICATION_TYPE":"U","BSTAR":"0.00018562000000","OBJECT_ID":"2021-017M","TIME_SYSTEM":"UTC","PERIAPSIS":"545.846","COUNTRY_CODE":"US","SITE":"AFETR","CENTER_NAME":"EARTH","OBJECT_NAME":"STARLINK-2143","GP_ID":"189045629","LAUNCH_DATE":"2021-03-04","TLE_LINE1":"1 47733U 21017M   21309.82706036  .00002485  00000-0  18562-3 0  9996","APOAPSIS":"548.553","SEMIMAJOR_AXIS":"6925.334","DECAY_DATE":null,"INCLINATION":"53.0396","MEAN_ELEMENT_THEORY":"SGP4","NORAD_CAT_ID":"47733","REV_AT_EPOCH":"3876","ARG_OF_PERICENTER":"76.0821","PERIOD":"95.592","RA_OF_ASC_NODE":"136.4304","MEAN_MOTION":"15.06404632","OBJECT_TYPE":"PAYLOAD","TLE_LINE2":"2 47733  53.0396 136.4304 0001954  76.0821 284.0385 15.06404632 38761","ECCENTRICITY":"0.00019540","EPOCH":"2021-11-05T19:50:58.015104","ELEMENT_SET_NO":"999","REF_FRAME":"TEME","MEAN_MOTION_DDOT":"0.0000000000000","MEAN_MOTION_DOT":"0.00002485","EPHEMERIS_TYPE":"0"},{"MEAN_MOTION_DDOT":"0.0000000000000","REF_FRAME":"TEME","MEAN_MOTION_DOT":"0.00001337","EPHEMERIS_TYPE":"0","ELEMENT_SET_NO":"999","TLE_LINE2":"2 47734  53.0558 126.2559 0002039  73.6501 286.4712 15.06402095 38877","OBJECT_TYPE":"PAYLOAD","EPOCH":"2021-11-05T20:18:50.249088","ECCENTRICITY":"0.00020390","PERIOD":"95.592","ARG_OF_PERICENTER":"73.6501","MEAN_MOTION":"15.06402095","RA_OF_ASC_NODE":"126.2559","NORAD_CAT_ID":"47734","REV_AT_EPOCH":"3887","MEAN_ELEMENT_THEORY":"SGP4","INCLINATION":"53.0558","DECAY_DATE":null,"SEMIMAJOR_AXIS":"6925.342","TLE_LINE1":"1 47734U 21017N   21309.84641492  .00001337  00000-0  10867-3 0  9998","APOAPSIS":"548.619","GP_ID":"189046389","LAUNCH_DATE":"2021-03-04","CENTER_NAME":"EARTH","OBJECT_NAME":"STARLINK-2144","SITE":"AFETR","COUNTRY_CODE":"US","TIME_SYSTEM":"UTC","OBJECT_ID":"2021-017N","PERIAPSIS":"545.795","CLASSIFICATION_TYPE":"U","BSTAR":"0.00010867000000","MEAN_ANOMALY":"286.4712","RCS_SIZE":"LARGE","FILE":"3204412"},{"DECAY_DATE":null,"SEMIMAJOR_AXIS":"6925.312","TLE_LINE1":"1 47735U 21017P   21309.78049231  .00003399  00000-0  24691-3 0  9995","APOAPSIS":"547.946","GP_ID":"189046616","LAUNCH_DATE":"2021-03-04","CENTER_NAME":"EARTH","OBJECT_NAME":"STARLINK-2146","SITE":"AFETR","COUNTRY_CODE":"US","OBJECT_ID":"2021-017P","TIME_SYSTEM":"UTC","PERIAPSIS":"546.408","CLASSIFICATION_TYPE":"U","BSTAR":"0.00024691000000","MEAN_ANOMALY":"259.5789","FILE":"3204412","RCS_SIZE":"LARGE","REF_FRAME":"TEME","MEAN_MOTION_DDOT":"0.0000000000000","EPHEMERIS_TYPE":"0","MEAN_MOTION_DOT":"0.00003399","ELEMENT_SET_NO":"999","OBJECT_TYPE":"PAYLOAD","TLE_LINE2":"2 47735  53.0544  51.5358 0001110 100.5325 259.5789 15.06411988 39892","EPOCH":"2021-11-05T18:43:54.535584","ECCENTRICITY":"0.00011100","PERIOD":"95.591","ARG_OF_PERICENTER":"100.5325","MEAN_MOTION":"15.06411988","RA_OF_ASC_NODE":"51.5358","NORAD_CAT_ID":"47735","REV_AT_EPOCH":"3989","MEAN_ELEMENT_THEORY":"SGP4","INCLINATION":"53.0544"},{"SEMIMAJOR_AXIS":"6925.341","APOAPSIS":"548.336","TLE_LINE1":"1 47736U 21017Q   21309.94686191  .00001765  00000-0  13733-3 0  9996","DECAY_DATE":null,"CENTER_NAME":"EARTH","OBJECT_NAME":"STARLINK-2147","GP_ID":"189045887","LAUNCH_DATE":"2021-03-04","TIME_SYSTEM":"UTC","OBJECT_ID":"2021-017Q","PERIAPSIS":"546.077","SITE":"AFETR","COUNTRY_CODE":"US","MEAN_ANOMALY":"271.1422","RCS_SIZE":"LARGE","FILE":"3204412","CLASSIFICATION_TYPE":"U","BSTAR":"0.00013733000000","ELEMENT_SET_NO":"999","MEAN_MOTION_DDOT":"0.0000000000000","REF_FRAME":"TEME","EPHEMERIS_TYPE":"0","MEAN_MOTION_DOT":"0.00001765","OBJECT_TYPE":"PAYLOAD","TLE_LINE2":"2 47736  53.0569 115.8020 0001631  88.9754 271.1422 15.06402439 39067","EPOCH":"2021-11-05T22:43:28.869024","ECCENTRICITY":"0.00016310","PERIOD":"95.592","ARG_OF_PERICENTER":"88.9754","MEAN_MOTION":"15.06402439","RA_OF_ASC_NODE":"115.8020","MEAN_ELEMENT_THEORY":"SGP4","INCLINATION":"53.0569","NORAD_CAT_ID":"47736","REV_AT_EPOCH":"3906"},{"CLASSIFICATION_TYPE":"U","BSTAR":"0.00019381000000","MEAN_ANOMALY":"289.6538","RCS_SIZE":"LARGE","FILE":"3204412","SITE":"AFETR","COUNTRY_CODE":"US","OBJECT_ID":"2021-017R","TIME_SYSTEM":"UTC","PERIAPSIS":"546.231","GP_ID":"189046129","LAUNCH_DATE":"2021-03-04","CENTER_NAME":"EARTH","OBJECT_NAME":"STARLINK-2148","DECAY_DATE":null,"SEMIMAJOR_AXIS":"6925.310","TLE_LINE1":"1 47737U 21017R   21309.76300704  .00002607  00000-0  19381-3 0  9991","APOAPSIS":"548.119","NORAD_CAT_ID":"47737","REV_AT_EPOCH":"3994","MEAN_ELEMENT_THEORY":"SGP4","INCLINATION":"53.0557","ARG_OF_PERICENTER":"70.4599","PERIOD":"95.591","RA_OF_ASC_NODE":"51.6181","MEAN_MOTION":"15.06412649","OBJECT_TYPE":"PAYLOAD","TLE_LINE2":"2 47737  53.0557  51.6181 0001363  70.4599 289.6538 15.06412649 39948","EPOCH":"2021-11-05T18:18:43.808256","ECCENTRICITY":"0.00013630","REF_FRAME":"TEME","MEAN_MOTION_DDOT":"0.0000000000000","MEAN_MOTION_DOT":"0.00002607","EPHEMERIS_TYPE":"0","ELEMENT_SET_NO":"999"}];
